#dP2020  1 27  0  0  0.00000000      97 __u+U IGS08 FIT  IAC
## 2090  86400.00000000   900.00000000 58875 0.0000000000000
+  115   C01C02C03C04C05C06C07C08C09C10C11C12C13C14C16C19C20
+        C21C22C23C24C25C26C27C28C29C30C32C33C34C35C36C37E01
+        E02E03E04E05E07E08E09E11E12E13E14E15E18E19E21E24E25
+        E26E27E30E31E33E36G01G02G03G04G05G06G07G08G09G10G11
+        G12G13G14G15G16G17G18G19G20G21G22G23G24G25G26G27G28
+        G29G30G31G32J01J02J03J07R01R02R03R04R05R07R08R09R11
+        R12R13R14R15R16R17R18R19R20R21R22R23R26  0  0  0  0
++        13 13 13 13 12  8  8  8  7  8  7  7  8  7  8  7  7
++         7  8  7  7  7  7  7  7  8  8  7  7  7  8  8  8  4
++         4  4  4  4  3  3  4  3  4  3  4  4  4  4  4  4  4
++         4  4  4  4  4  4  3  3  3  3  3  3  3  3  3  3  3
++         3  3  3  3  3  3  3  3  3  3  3  3  3  3  3  3  3
++         3  3  3  3  8  8  8 15  6  5  5  5  5  5  7  5  5
++         5  6  5  5  6  5  5  6  6  5  5  5  8  0  0  0  0
%c M  cc GPS ccc cccc cccc cccc cccc ccccc ccccc ccccc ccccc
%c cc cc ccc ccc cccc cccc cccc cccc ccccc ccccc ccccc ccccc
%f  1.2500000  1.025000000  0.00000000000  0.000000000000000
%f  0.0000000  0.000000000  0.00000000000  0.000000000000000
%i    0    0    0    0      0      0      0      0         0
%i    0    0    0    0      0      0      0      0         0
/* INFORMATION & ANALYSIS CENTER (IAC)            FINAL DATA
/* S/V CLOCKS ARE ALIGNED TO GNSS TIME                      
/* G:C1WC2W R:C1PC2P E:C1XC5X C:C2IC6I J:C1CC2S             
/* PCV:IGS14_2086 OL/AL:FES2004  NONE     YN ORB:CoN CLK:CoN
*  2020 01 27 22  0  0.00000000
PC01 -32325.513222  27063.549891   -662.525457    132.000046
PC02   4418.106126  41930.569379   1189.357428    582.930275
PC03 -14853.066494  39487.909746    481.220119   -397.891429
PC04 -39611.325591  14393.497074   -270.107006 999999.999999
PC05  21836.519158  36082.791044   1381.400068   -250.291605
PC06 -10243.087414  37910.930450  16251.104210    253.902172
PC07 -12468.865052  22921.139017 -32965.694103     61.533180
PC08 -24367.822169  29116.081076  18050.850211    -97.444126
PC09  -2789.297784  42124.272886   3763.260395    292.186346
PC10   2163.186402  27740.546373 -31405.387258   -602.603580
PC11  -2991.576097  26902.444624   6741.170290   -146.858165
PC12 -13629.823911  21448.222645 -11459.452377    313.004530
PC13 -11831.098541  29816.999839  27310.986725    231.649037
PC14   6128.125436  21885.791398  16184.428169 999999.999999
PC16  -8366.180990  38671.824755  14880.911614   -817.948271
PC19 -14299.576412 -22363.895305  -8605.461739    309.704189
PC20   2123.800463 -18306.525875 -20948.581063   -621.163388
PC21 -17864.868403   3152.998173  21223.765850    -19.444640
PC22 -22695.177777 -13563.915420   8968.668038   -750.221456
PC23  24020.784207   3803.890425 -13691.636641   -878.777211
PC24 -13305.618193  16657.356260 -17999.694645   -910.280911
PC25   8388.240593  14185.602731 -22527.059216   -496.020590
PC26 -25766.475241  10046.212562  -3593.073340    549.807928
PC27  16726.617713 -13080.265072  18087.127859    268.163003
PC28  14219.144327   7638.457715  22771.331929    259.107434
PC29  -4322.800840 -23674.280635 -14124.617512    179.667801
PC30   8635.299771 -26342.116947   3105.664388    262.886136
PC32  17831.447148  -3297.597842 -21199.464642   -860.861231
PC33  14314.859689  22314.196638   8694.796685   -834.855107
PC34  -8492.867164  26458.343771  -2708.462426   -424.463571
PC35 -14481.068353  -7282.414170 -22706.804968   -812.944274
PC36  -7801.245226 -14466.525793  22572.210782   -839.011544
PC37  26217.969832  -9107.627291   3018.981902   -901.007785
PE01 -15647.480065 -15732.946930  19585.754294   -782.577690
PE02  15748.356394  15714.967494 -19535.693738    108.720175
PE03  12519.427929  26629.611726  -3157.336971   -259.800042
PE04 -19094.009742 -12204.710926  19042.054549   -454.083897
PE05  -1473.118233  25611.411861  14763.529810   -410.394077
PE07  14509.111013  -9632.449468 -23934.828155   -332.852450
PE08  19082.232805  11908.126728 -19239.357815   6228.681767
PE09 -14280.208921   9738.043684  24027.981574   6175.043153
PE11 -22003.784020  17270.300831  -9703.452697    989.913042
PE12 -18493.677675  -1294.435338 -23068.336537   5980.279516
PE13  21946.654352 -17183.885851   9969.469702    397.811518
PE14   1801.156001 -26934.097075   2504.432921   -883.708704
PE15  18546.349269    978.537761  23063.159547    879.343931
PE18 -12234.114392  23164.781775 -14671.436229   -980.670045
PE19 -11280.232749 -27341.327561   1114.376642     -1.778328
PE21   6315.133192 -15443.317945  24447.973482   -579.410784
PE24 -24822.771397   5995.760620 -14956.308631   5640.723823
PE25  -6419.131024  15417.193981 -24434.218914   -502.322922
PE26  12398.842686 -25249.829241  -9208.083028   3597.087290
PE27  24789.779011  -6111.258603  14989.939990    294.692432
PE30  28566.270657   7030.257440  -3376.089384   4190.253756
PE31 -28628.281015  -6777.331286   3242.351769   -471.472248
PE33  -4254.025345 -18581.784893 -22628.403854   -470.714214
PE36 -12460.116068  25297.092734   9018.377058    605.831975
PG01   9038.794724 -19071.808901 -16123.285869   -276.189978
PG02 -22039.609778  14169.332494  -3375.339728   -393.955795
PG03  -2800.352344 -16994.442125 -20300.269337    -81.426106
PG04    897.153124 -26386.515132  -2785.457279    -40.507716
PG05 -18292.469596   6013.134203  18240.293963     -6.718164
PG06 -22107.409264   3368.575764 -14305.002326   -193.547800
PG07  -8713.143595 -12831.595778  21847.069906   -201.539792
PG08   6960.349413 -22035.233714  12905.715298    -21.723293
PG09  -7087.602881 -24620.128764   6920.722146   -142.318156
PG10  24101.133118  11459.627415   -227.817338   -224.704533
PG11   9610.210669 -24546.309140  -4824.806496   -377.876399
PG12  -1777.086787  15689.381794 -21610.671303    157.677896
PG13 -12799.248245  15323.474375  17352.305412    -17.002183
PG14  15070.805512   -492.718736 -21532.314219    -36.137051
PG15  -4832.240977  23016.456432  11658.531415   -255.632526
PG16  18868.868932  -3080.619776  18428.372042   -118.150740
PG17 -13267.676784 -11199.837945 -19690.169172    206.075038
PG18  15192.629509 -19827.721255  -9396.663627    116.112833
PG19 -14769.386844  -2496.580862 -22226.136750   -206.650587
PG20  19584.435901  14707.942342  10437.171390    527.837924
PG21  10985.224628  11422.141892  22101.083712    -49.494756
PG22   5929.302897 -14616.836564 -21147.649387   -783.238363
PG23  -1461.560983 -26250.881766  -1405.480230   -140.280826
PG24  -9792.239345  20342.415625 -13887.053529     -8.177419
PG25  11932.853847  17994.026766 -15872.085331    -14.990769
PG26  24113.855704   2020.440181  11171.477763    136.275002
PG27  12466.978277 -12205.514951  19804.670153   -193.900230
PG28 -23010.252895 -12986.969614  -1192.285531    742.799844
PG29   4524.392259  25290.046133   6667.495161    -18.332383
PG30 -18405.207324  -4636.040472  18685.013187   -139.306345
PG31  23440.478930  -4943.099814 -11991.967381    -19.364768
PG32  14749.226039   9847.977494 -19749.729217    196.740406
PJ01 -24917.384180  23059.242402  30070.792070   -325.262173
PJ02 -34095.426169  15733.246200 -14713.763061     -0.982197
PJ03 -20531.230384  31487.375296 -14340.510000     -0.242195
PJ07 -25409.892899  33651.419374     14.104889     -0.056763
PR01  -3661.207875 -18940.837321 -16698.493377     56.230422
PR02 -15416.480380 -20077.444158   2927.498369    409.134640
PR03 -16044.240566  -8026.498277  18146.624697      8.998671
PR04  -7354.211881   8332.008387  22981.524353     36.797638
PR05   5418.851529  20086.708494  14781.303843     43.928757
PR07  15910.482063   7652.637550 -18399.094118    -32.512870
PR08   7477.932675  -8331.303393 -22871.252305    -50.259121
PR09  18641.207578   6368.509987 -16156.311315    113.701906
PR11  19298.473520  -8550.949806  14303.843306    -11.474921
PR12   3043.603052 -11074.488003  22802.205456    100.622874
PR13 -16041.582710  -7290.118359  18422.197695    -34.078698
PR14 -25300.247722    477.304344   3250.276835     47.524878
PR15 -19991.540178   8063.063163 -13613.392973    105.786700
PR16  -2199.046258  11281.079210 -22786.581043     -1.201571
PR17 -12622.808901   3157.687147 -21916.334353    296.025608
PR18 -14230.511121  18209.862222 -10838.089425     23.062583
PR19  -8964.055521  23184.554866   5731.748462    -76.171911
PR20   3133.840445  14342.479474  20887.648762   -402.599121
PR21  12855.779756  -4085.748437  21662.657136   -101.070158
PR22  13777.905224 -19736.417673   8270.465919    -11.582304
PR23   4932.907628 -22124.788441 -11695.102950    282.608876
PR26    926.608890  17326.112741  18703.335362   -409.988027
EOF
